{"type": "FeatureCollection", "features": [ {"type": "Feature", "properties": {"norad_id": 36622, "name": "COSMOS 2251 DEB", "group": "cosmos-2251-debris", "lat": 65.39636644600996, "lon": -157.23502895965703, "alt_km": 665.7344508436836, "timestamp": "2025-12-03T06:58:43.639505+00:00", "meta": {"OBJECT_NAME": "COSMOS 2251 DEB", "OBJECT_ID": "1993-036BEL", "EPOCH": "2025-12-02T20:53:53.024640", "MEAN_MOTION": 14.76056615, "ECCENTRICITY": 0.0068654, "INCLINATION": 74.0123, "RA_OF_ASC_NODE": 164.8241, "ARG_OF_PERICENTER": 302.182, "MEAN_ANOMALY": 57.2707, "EPHEMERIS_TYPE": 0, "CLASSIFICATION_TYPE": "U", "NORAD_CAT_ID": 36622, "ELEMENT_SET_NO": 999, "REV_AT_EPOCH": 66604, "BSTAR": 0.00076278, "MEAN_MOTION_DOT": 5.434e-05, "MEAN_MOTION_DDOT": 0}, "tle": {"line1": "1 36622U 93036BEL 25336.87075260  .00005434  00000+0  76278-3 0  9992", "line2": "2 36622  74.0123 164.8241 0068654 302.1820  57.2707 14.76056615666040"}}, "geometry": {"type": "Point", "coordinates": [-157.23502895965703, 65.39636644600996]}}, {"type": "Feature", "properties": {"norad_id": 36632, "name": "COSMOS 2251 DEB", "group": "cosmos-2251-debris", "lat": -73.58851741975583, "lon": -126.97283517866005, "alt_km": 774.0291090989504, "timestamp": "2025-12-03T06:58:43.639515+00:00", "meta": {"OBJECT_NAME": "COSMOS 2251 DEB", "OBJECT_ID": "1993-036BEW", "EPOCH": "2025-12-02T14:44:27.820896", "MEAN_MOTION": 14.43079898, "ECCENTRICITY": 0.00315122, "INCLINATION": 74.0016, "RA_OF_ASC_NODE": 311.214, "ARG_OF_PERICENTER": 61.7706, "MEAN_ANOMALY": 298.6626, "EPHEMERIS_TYPE": 0, "CLASSIFICATION_TYPE": "U", "NORAD_CAT_ID": 36632, "ELEMENT_SET_NO": 999, "REV_AT_EPOCH": 65069, "BSTAR": 0.0010615143, "MEAN_MOTION_DOT": 3.557e-05, "MEAN_MOTION_DDOT": 0}, "tle": {"line1": "1 36632U 93036BEW 25336.61421089  .00003557  00000+0  10615-2 0  9995", "line2": "2 36632  74.0016 311.2140 0031512  61.7706 298.6626 14.43079898650699"}}, "geometry": {"type": "Point", "coordinates": [-126.97283517866005, -73.58851741975583]}}, {"type": "Feature", "properties": {"norad_id": 37084, "name": "COSMOS 2251 DEB", "group": "cosmos-2251-debris", "lat": 62.58688707819844, "lon": -32.83063220419845, "alt_km": 617.4497317579726, "timestamp": "2025-12-03T06:58:43.639525+00:00", "meta": {"OBJECT_NAME": "COSMOS 2251 DEB", "OBJECT_ID": "1993-036BFE", "EPOCH": "2025-12-01T06:28:31.045728", "MEAN_MOTION": 15.00732489, "ECCENTRICITY": 0.0098181, "INCLINATION": 74.0271, "RA_OF_ASC_NODE": 184.8055, "ARG_OF_PERICENTER": 268.0487, "MEAN_ANOMALY": 90.9454, "EPHEMERIS_TYPE": 0, "CLASSIFICATION_TYPE": "U", "NORAD_CAT_ID": 37084, "ELEMENT_SET_NO": 999, "REV_AT_EPOCH": 66095, "BSTAR": 0.00060454, "MEAN_MOTION_DOT": 8.458e-05, "MEAN_MOTION_DDOT": 0}, "tle": {"line1": "1 37084U 93036BFE 25335.26980377  .00008458  00000+0  60454-3 0  9999", "line2": "2 37084  74.0271 184.8055 0098181 268.0487  90.9454 15.00732489660954"}}, "geometry": {"type": "Point", "coordinates": [-32.83063220419845, 62.58688707819844]}}, {"type": "Feature", "properties": {"norad_id": 37085, "name": "COSMOS 2251 DEB", "group": "cosmos-2251-debris", "lat": -70.88638324861292, "lon": 112.76766302354007, "alt_km": 471.4767894737315, "timestamp": "2025-12-03T06:58:43.639536+00:00", "meta": {"OBJECT_NAME": "COSMOS 2251 DEB", "OBJECT_ID": "1993-036BFF", "EPOCH": "2025-11-28T11:55:49.113408", "MEAN_MOTION": 15.38117906, "ECCENTRICITY": 0.00226635, "INCLINATION": 73.9498, "RA_OF_ASC_NODE": 246.9762, "ARG_OF_PERICENTER": 85.7386, "MEAN_ANOMALY": 274.6409, "EPHEMERIS_TYPE": 0, "CLASSIFICATION_TYPE": "U", "NORAD_CAT_ID": 37085, "ELEMENT_SET_NO": 999, "REV_AT_EPOCH": 66918, "BSTAR": 0.0022192739, "MEAN_MOTION_DOT": 0.00084925, "MEAN_MOTION_DDOT": 0}, "tle": {"line1": "1 37085U 93036BFF 25332.49709622  .00084925  00000+0  22193-2 0  9994", "line2": "2 37085  73.9498 246.9762 0022663  85.7386 274.6409 15.38117906669180"}}, "geometry": {"type": "Point", "coordinates": [112.76766302354007, -70.88638324861292]}}, {"type": "Feature", "properties": {"norad_id": 37089, "name": "COSMOS 2251 DEB", "group": "cosmos-2251-debris", "lat": 42.67130592920242, "lon": -31.719134658538334, "alt_km": 775.1398050332937, "timestamp": "2025-12-03T06:58:43.639546+00:00", "meta": {"OBJECT_NAME": "COSMOS 2251 DEB", "OBJECT_ID": "1993-036BFK", "EPOCH": "2025-11-27T19:45:58.315104", "MEAN_MOTION": 14.52523041, "ECCENTRICITY": 0.0136019, "INCLINATION": 74.0379, "RA_OF_ASC_NODE": 173.8866, "ARG_OF_PERICENTER": 277.3049, "MEAN_ANOMALY": 81.267, "EPHEMERIS_TYPE": 0, "CLASSIFICATION_TYPE": "U", "NORAD_CAT_ID": 37089, "ELEMENT_SET_NO": 999, "REV_AT_EPOCH": 65893, "BSTAR": 0.0020033475, "MEAN_MOTION_DOT": 9.221e-05, "MEAN_MOTION_DDOT": 0}, "tle": {"line1": "1 37089U 93036BFK 25331.82359161  .00009221  00000+0  20033-2 0  9990", "line2": "2 37089  74.0379 173.8866 0136019 277.3049  81.2670 14.52523041658932"}}, "geometry": {"type": "Point", "coordinates": [-31.719134658538334, 42.67130592920242]}}, {"type": "Feature", "properties": {"norad_id": 37094, "name": "COSMOS 2251 DEB", "group": "cosmos-2251-debris", "lat": 48.739563877900885, "lon": 157.43339222020117, "alt_km": 727.0619471465316, "timestamp": "2025-12-03T06:58:43.639556+00:00", "meta": {"OBJECT_NAME": "COSMOS 2251 DEB", "OBJECT_ID": "1993-036BFQ", "EPOCH": "2025-12-01T04:38:30.122016", "MEAN_MOTION": 14.37719988, "ECCENTRICITY": 0.0084296, "INCLINATION": 74.1075, "RA_OF_ASC_NODE": 142.3264, "ARG_OF_PERICENTER": 111.6851, "MEAN_ANOMALY": 249.3305, "EPHEMERIS_TYPE": 0, "CLASSIFICATION_TYPE": "U", "NORAD_CAT_ID": 37094, "ELEMENT_SET_NO": 999, "REV_AT_EPOCH": 84340, "BSTAR": 0.0011679, "MEAN_MOTION_DOT": 3.636e-05, "MEAN_MOTION_DDOT": 0}, "tle": {"line1": "1 37094U 93036BFQ 25335.19340419  .00003636  00000+0  11679-2 0  9996", "line2": "2 37094  74.1075 142.3264 0084296 111.6851 249.3305 14.37719988843405"}}, "geometry": {"type": "Point", "coordinates": [157.43339222020117, 48.739563877900885]}}, {"type": "Feature", "properties": {"norad_id": 37095, "name": "COSMOS 2251 DEB", "group": "cosmos-2251-debris", "lat": 65.30381735925998, "lon": -114.38482905374663, "alt_km": 1012.8345547354984, "timestamp": "2025-12-03T06:58:43.639566+00:00", "meta": {"OBJECT_NAME": "COSMOS 2251 DEB", "OBJECT_ID": "1993-036BFR", "EPOCH": "2025-12-02T08:23:30.966144", "MEAN_MOTION": 14.03314809, "ECCENTRICITY": 0.01958196, "INCLINATION": 73.8483, "RA_OF_ASC_NODE": 208.2093, "ARG_OF_PERICENTER": 267.7854, "MEAN_ANOMALY": 90.0848, "EPHEMERIS_TYPE": 0, "CLASSIFICATION_TYPE": "U", "NORAD_CAT_ID": 37095, "ELEMENT_SET_NO": 999, "REV_AT_EPOCH": 62490, "BSTAR": 0.0015878918, "MEAN_MOTION_DOT": 2.912e-05, "MEAN_MOTION_DDOT": 0}, "tle": {"line1": "1 37095U 93036BFR 25336.34966396  .00002912  00000+0  15879-2 0  9995", "line2": "2 37095  73.8483 208.2093 0195819 267.7854  90.0848 14.03314809624908"}}, "geometry": {"type": "Point", "coordinates": [-114.38482905374663, 65.30381735925998]}}, {"type": "Feature", "properties": {"norad_id": 37108, "name": "COSMOS 2251 DEB", "group": "cosmos-2251-debris", "lat": -73.89296895382711, "lon": 0.29224988951825526, "alt_km": 762.1992858394888, "timestamp": "2025-12-03T06:58:43.639576+00:00", "meta": {"OBJECT_NAME": "COSMOS 2251 DEB", "OBJECT_ID": "1993-036BGE", "EPOCH": "2025-12-02T08:05:10.630176", "MEAN_MOTION": 14.41120633, "ECCENTRICITY": 0.00925525, "INCLINATION": 74.0427, "RA_OF_ASC_NODE": 99.8151, "ARG_OF_PERICENTER": 178.899, "MEAN_ANOMALY": 181.2388, "EPHEMERIS_TYPE": 0, "CLASSIFICATION_TYPE": "U", "NORAD_CAT_ID": 37108, "ELEMENT_SET_NO": 999, "REV_AT_EPOCH": 85357, "BSTAR": 0.0020748567, "MEAN_MOTION_DOT": 7.015e-05, "MEAN_MOTION_DDOT": 0}, "tle": {"line1": "1 37108U 93036BGE 25336.33692859  .00007015  00000+0  20749-2 0  9990", "line2": "2 37108  74.0427  99.8151 0092552 178.8990 181.2388 14.41120633853577"}}, "geometry": {"type": "Point", "coordinates": [0.29224988951825526, -73.89296895382711]}}, {"type": "Feature", "properties": {"norad_id": 37126, "name": "COSMOS 2251 DEB", "group": "cosmos-2251-debris", "lat": 16.627467883781737, "lon": -171.8802475724407, "alt_km": 651.469969389862, "timestamp": "2025-12-03T06:58:43.639586+00:00", "meta": {"OBJECT_NAME": "COSMOS 2251 DEB", "OBJECT_ID": "1993-036BGY", "EPOCH": "2025-11-27T19:49:48.379296", "MEAN_MOTION": 14.7298682, "ECCENTRICITY": 0.01235898, "INCLINATION": 73.9551, "RA_OF_ASC_NODE": 23.7462, "ARG_OF_PERICENTER": 265.0836, "MEAN_ANOMALY": 93.6217, "EPHEMERIS_TYPE": 0, "CLASSIFICATION_TYPE": "U", "NORAD_CAT_ID": 37126, "ELEMENT_SET_NO": 999, "REV_AT_EPOCH": 7879, "BSTAR": 0.00028630481, "MEAN_MOTION_DOT": 2.036e-05, "MEAN_MOTION_DDOT": 0}, "tle": {"line1": "1 37126U 93036BGY 25331.82625439  .00002036  00000+0  28630-3 0  9995", "line2": "2 37126  73.9551  23.7462 0123589 265.0836  93.6217 14.72986820 78799"}}, "geometry": {"type": "Point", "coordinates": [-171.8802475724407, 16.627467883781737]}}, {"type": "Feature", "properties": {"norad_id": 37132, "name": "COSMOS 2251 DEB", "group": "cosmos-2251-debris", "lat": 55.2645488148696, "lon": -82.93123789949247, "alt_km": 604.1151955824407, "timestamp": "2025-12-03T06:58:43.639596+00:00", "meta": {"OBJECT_NAME": "COSMOS 2251 DEB", "OBJECT_ID": "1993-036BHE", "EPOCH": "2025-11-29T01:57:55.161216", "MEAN_MOTION": 14.77491911, "ECCENTRICITY": 0.00393056, "INCLINATION": 74.0019, "RA_OF_ASC_NODE": 260.8973, "ARG_OF_PERICENTER": 60.0895, "MEAN_ANOMALY": 300.4174, "EPHEMERIS_TYPE": 0, "CLASSIFICATION_TYPE": "U", "NORAD_CAT_ID": 37132, "ELEMENT_SET_NO": 999, "REV_AT_EPOCH": 62214, "BSTAR": 0.0012599445, "MEAN_MOTION_DOT": 9.078e-05, "MEAN_MOTION_DDOT": 0}, "tle": {"line1": "1 37132U 93036BHE 25333.08188844  .00009078  00000+0  12599-2 0  9995", "line2": "2 37132  74.0019 260.8973 0039305  60.0895 300.4174 14.77491911622140"}}, "geometry": {"type": "Point", "coordinates": [-82.93123789949247, 55.2645488148696]}}]}